NORAD_CAT_ID,OBJECT_NAME,OBJECT_TYPE,EPOCH,MEAN_MOTION,ECCENTRICITY,INCLINATION,RA_OF_ASC_NODE,ARG_OF_PERICENTER,MEAN_ANOMALY,BSTAR,MEAN_MOTION_DOT,MEAN_MOTION_DDOT,TLE_LINE0,TLE_LINE1,TLE_LINE2,SEMIMAJOR_AXIS,PERIOD,APOGEE,PERIGEE,DECAYED
52851.0,STARLINK-3809,PAYLOAD,2023-07-31 18:24:38,15.08850859,0.0001137,53.218,337.4667,79.6068,280.5052,0.0010081,0.00015797,0.0,0 STARLINK-3809,1 52851U 22062X   23212.76711624  .00015797  00000-0  10081-2 0  9998,2 52851  53.2180 337.4667 0001137  79.6068 280.5052 15.08850859 62702,6917.847,95.437,540.499,538.926,0.0
52851.0,STARLINK-3809,PAYLOAD,2023-08-01 18:15:25,15.08852764,0.0001051,53.218,333.0067,84.744,275.3672,0.00087231,0.00013627,0.0,0 STARLINK-3809,1 52851U 22062X   23213.76071560  .00013627  00000-0  87231-3 0  9999,2 52851  53.2180 333.0067 0001051  84.7440 275.3672 15.08852764 62857,6917.841,95.437,540.433,538.979,0.0
52851.0,STARLINK-3809,PAYLOAD,2023-08-02 08:33:54,15.08842359,0.0001895,53.2176,330.3301,113.6291,246.4901,0.00041706,6.356e-05,0.0,0 STARLINK-3809,1 52851U 22062X   23214.35687627  .00006356  00000-0  41706-3 0  9990,2 52851  53.2176 330.3301 0001895 113.6291 246.4901 15.08842359 62948,6917.873,95.437,541.049,538.427,0.0
52851.0,STARLINK-3809,PAYLOAD,2023-08-02 18:06:12,15.08859922,9.57e-05,53.2176,328.5465,98.3045,261.8055,0.0011376,0.00017873,0.0,0 STARLINK-3809,1 52851U 22062X   23214.75431417  .00017873  00000-0  11376-2 0  9993,2 52851  53.2176 328.5465 0000957  98.3045 261.8055 15.08859922 63005,6917.819,95.436,540.347,539.022,0.0
52851.0,STARLINK-3809,PAYLOAD,2023-08-03 14:46:13,15.0885461,9.02e-05,53.2171,324.6808,105.3523,254.7569,0.00080503,0.00012552,0.0,0 STARLINK-3809,1 52851U 22062X   23215.61543332  .00012552  00000-0  80503-3 0  9997,2 52851  53.2171 324.6808 0000902 105.3523 254.7569 15.08854610 63132,6917.836,95.437,540.325,539.077,0.0
52851.0,STARLINK-3809,PAYLOAD,2023-08-04 06:40:05,15.08821611,7.81e-05,53.2168,321.7076,98.5753,261.5328,-9.0633e-05,-1.729e-05,0.0,0 STARLINK-3809,1 52851U 22062X   23216.27783916 -.00001729  00000-0 -90633-4 0  9996,2 52851  53.2168 321.7076 0000781  98.5753 261.5328 15.08821611 63231,6917.937,95.439,540.342,539.261,0.0
52851.0,STARLINK-3809,PAYLOAD,2023-08-04 19:23:10,15.08845592,9.99e-05,53.2159,319.3286,90.5204,269.5902,0.0013801,0.00021748,0.0,0 STARLINK-3809,1 52851U 22062X   23216.80776285  .00021748  00000-0  13801-2 0  9997,2 52851  53.2159 319.3286 0000999  90.5204 269.5902 15.08845592 63310,6917.863,95.437,540.419,539.037,0.0
52851.0,STARLINK-3809,PAYLOAD,2023-08-06 00:00:05,15.08869525,0.0001208,53.216,313.9752,94.5336,265.5794,0.0011675,0.00018357,0.0,0 STARLINK-3809,1 52851U 22062X   23218.00006922  .00018357  00000-0  11675-2 0  9994,2 52851  53.2160 313.9752 0001208  94.5336 265.5794 15.08869525 63490,6917.79,95.436,540.491,538.819,0.0
52851.0,STARLINK-3809,PAYLOAD,2023-08-06 11:07:49,15.08807992,0.000138,53.2154,311.894,100.2248,259.89,0.0006956,0.0001079,0.0,0 STARLINK-3809,1 52851U 22062X   23218.46376196  .00010790  00000-0  69560-3 0  9997,2 52851  53.2154 311.8940 0001380 100.2248 259.8900 15.08807992 63560,6917.978,95.44,540.798,538.889,0.0
52851.0,STARLINK-3809,PAYLOAD,2023-08-07 17:20:09,15.08852377,0.0001038,53.2161,306.2447,96.0452,264.0658,0.0014124,0.00022269,0.0,0 STARLINK-3809,1 52851U 22062X   23219.72233318  .00022269  00000-0  14124-2 0  9994,2 52851  53.2161 306.2447 0001038  96.0452 264.0658 15.08852377 63753,6917.843,95.437,540.426,538.989,0.0
52851.0,STARLINK-3809,PAYLOAD,2023-08-08 06:03:14,15.08855508,0.0001122,53.2161,303.8651,99.1172,260.9947,0.00095901,0.00015014,0.0,0 STARLINK-3809,1 52851U 22062X   23220.25225122  .00015014  00000-0  95901-3 0  9991,2 52851  53.2161 303.8651 0001122  99.1172 260.9947 15.08855508 63834,6917.833,95.437,540.474,538.922,0.0
52851.0,STARLINK-3809,PAYLOAD,2023-08-09 09:04:47,15.08841712,0.0001067,53.2161,298.8094,107.5284,252.5825,0.00010535,1.389e-05,0.0,0 STARLINK-3809,1 52851U 22062X   23221.37832794  .00001389  00000-0  10535-3 0  9994,2 52851  53.2161 298.8094 0001067 107.5284 252.5825 15.08841712 64008,6917.875,95.437,540.478,539.002,0.0
52851.0,STARLINK-3809,PAYLOAD,2023-08-10 15:17:07,15.08853467,9.64e-05,53.2163,293.1607,93.993,266.1173,0.00060356,9.334e-05,0.0,0 STARLINK-3809,1 52851U 22062X   23222.63688696  .00009334  00000-0  60356-3 0  9998,2 52851  53.2163 293.1607 0000964  93.9930 266.1173 15.08853467 64196,6917.839,95.437,540.371,539.037,0.0
52851.0,STARLINK-3809,PAYLOAD,2023-08-10 21:38:39,15.08840899,0.0001223,53.2166,291.9693,91.705,268.4082,0.0002174,3.174e-05,0.0,0 STARLINK-3809,1 52851U 22062X   23222.90184962  .00003174  00000-0  21740-3 0  9995,2 52851  53.2166 291.9693 0001223  91.7050 268.4082 15.08840899 64232,6917.878,95.437,540.589,538.897,0.0
52851.0,STARLINK-3809,PAYLOAD,2023-08-11 21:29:26,15.08837993,7.33e-05,53.2162,287.511,96.1677,263.9398,-3.0778e-05,-7.77e-06,0.0,0 STARLINK-3809,1 52851U 22062X   23223.89544784 -.00000777  00000-0 -30778-4 0  9996,2 52851  53.2162 287.5110 0000733  96.1677 263.9398 15.08837993 64389,6917.887,95.438,540.259,539.244,0.0
52851.0,STARLINK-3809,PAYLOAD,2023-08-13 03:41:46,15.08840015,0.0001049,53.2156,281.8617,81.5473,278.5638,0.0001184,1.597e-05,0.0,0 STARLINK-3809,1 52851U 22062X   23225.15401149  .00001597  00000-0  11840-3 0  9991,2 52851  53.2156 281.8617 0001049  81.5473 278.5638 15.08840015 64573,6917.88,95.438,540.471,539.02,0.0
52851.0,STARLINK-3809,PAYLOAD,2023-08-14 09:54:06,15.08841469,0.0001126,53.2159,276.2124,74.8617,285.25,0.00013948,1.933e-05,0.0,0 STARLINK-3809,1 52851U 22062X   23226.41257292  .00001933  00000-0  13948-3 0  9994,2 52851  53.2159 276.2124 0001126  74.8617 285.2500 15.08841469 64766,6917.876,95.437,540.52,538.962,0.0
52851.0,STARLINK-3809,PAYLOAD,2023-08-15 14:31:02,15.08845496,0.0001112,53.2161,270.8569,97.5801,262.5317,0.00011381,1.524e-05,0.0,0 STARLINK-3809,1 52851U 22062X   23227.60488812  .00001524  00000-0  11381-3 0  9995,2 52851  53.2161 270.8569 0001112  97.5801 262.5317 15.08845496 64942,6917.864,95.437,540.498,538.959,0.0
52851.0,STARLINK-3809,PAYLOAD,2023-08-16 08:00:17,15.08838264,0.000118,53.2162,267.5855,96.4719,263.6407,3.4966e-05,2.69e-06,0.0,0 STARLINK-3809,1 52851U 22062X   23228.33353424  .00000269  00000-0  34966-4 0  9996,2 52851  53.2162 267.5855 0001180  96.4719 263.6407 15.08838264 65055,6917.886,95.438,540.567,538.934,0.0
52851.0,STARLINK-3809,PAYLOAD,2023-08-17 09:26:27,15.08843694,0.0001207,53.2164,262.827,100.8626,259.2502,7.235e-05,8.64e-06,0.0,0 STARLINK-3809,1 52851U 22062X   23229.39336973  .00000864  00000-0  72350-4 0  9993,2 52851  53.2164 262.8270 0001207 100.8626 259.2502 15.08843694 65211,6917.869,95.437,540.569,538.899,0.0
52851.0,STARLINK-3809,PAYLOAD,2023-08-17 18:58:46,15.08833179,0.0001486,53.2167,261.0427,90.2569,269.8593,-1.2379e-05,-4.85e-06,0.0,0 STARLINK-3809,1 52851U 22062X   23229.79081969 -.00000485  00000-0 -12379-4 0  9995,2 52851  53.2167 261.0427 0001486  90.2569 269.8593 15.08833179 65276,6917.901,95.438,540.794,538.738,0.0
52851.0,STARLINK-3809,PAYLOAD,2023-08-18 18:49:33,15.08837636,0.0001196,53.2154,256.5832,85.9403,274.1726,2.6998e-05,1.42e-06,0.0,0 STARLINK-3809,1 52851U 22062X   23230.78441492  .00000142  00000-0  26998-4 0  9997,2 52851  53.2154 256.5832 0001196  85.9403 274.1726 15.08837636 65423,6917.888,95.438,540.58,538.925,0.0
52851.0,STARLINK-3809,PAYLOAD,2023-08-19 13:54:10,15.08844931,0.0001245,53.2152,253.0147,102.1983,257.9149,0.00010635,1.405e-05,0.0,0 STARLINK-3809,1 52851U 22062X   23231.57929198  .00001405  00000-0  10635-3 0  9992,2 52851  53.2152 253.0147 0001245 102.1983 257.9149 15.08844931 65549,6917.865,95.437,540.592,538.869,0.0
52851.0,STARLINK-3809,PAYLOAD,2023-08-20 08:58:49,15.08833619,0.0001249,53.2155,249.445,86.4317,273.6818,1.0034e-05,-1.28e-06,0.0,0 STARLINK-3809,1 52851U 22062X   23232.37418147 -.00000128  00000-0  10034-4 0  9994,2 52851  53.2155 249.4450 0001249  86.4317 273.6818 15.08833619 65669,6917.9,95.438,540.629,538.901,0.0
52851.0,STARLINK-3809,PAYLOAD,2023-08-21 07:14:12,15.08845586,0.0001161,53.2149,245.2846,84.6205,275.492,0.00018825,2.71e-05,0.0,0 STARLINK-3809,1 52851U 22062X   23233.30153781  .00002710  00000-0  18825-3 0  9991,2 52851  53.2149 245.2846 0001161  84.6205 275.4920 15.08845586 65800,6917.863,95.437,540.531,538.925,0.0
52851.0,STARLINK-3809,PAYLOAD,2023-08-22 03:54:14,15.08837773,0.0001222,53.2153,241.4191,82.5852,277.5279,9.6266e-05,1.244e-05,0.0,0 STARLINK-3809,1 52851U 22062X   23234.16266277  .00001244  00000-0  96266-4 0  9998,2 52851  53.2153 241.4191 0001222  82.5852 277.5279 15.08837773 65932,6917.887,95.438,540.598,538.907,0.0
52851.0,STARLINK-3809,PAYLOAD,2023-08-23 11:41:56,15.08846226,0.0001312,53.2158,235.4702,92.6297,267.4845,4.7688e-05,4.71e-06,0.0,0 STARLINK-3809,1 52851U 22062X   23235.48745653  .00000471  00000-0  47688-4 0  9999,2 52851  53.2158 235.4702 0001312  92.6297 267.4845 15.08846226 66136,6917.861,95.437,540.634,538.819,0.0
52851.0,STARLINK-3809,PAYLOAD,2023-08-24 11:32:43,15.08839661,0.0001425,53.216,231.0079,106.9171,253.1977,5.9498e-05,6.59e-06,0.0,0 STARLINK-3809,1 52851U 22062X   23236.48106078  .00000659  00000-0  59498-4 0  9992,2 52851  53.2160 231.0079 0001425 106.9171 253.1977 15.08839661 65797,6917.881,95.438,540.732,538.761,0.0
52851.0,STARLINK-3809,PAYLOAD,2023-08-25 09:48:07,15.08841603,0.0001297,53.2165,226.8453,94.5578,265.5563,4.7649e-05,4.71e-06,0.0,0 STARLINK-3809,1 52851U 22062X   23237.40842219  .00000471  00000-0  47649-4 0  9996,2 52851  53.2165 226.8453 0001297  94.5578 265.5563 15.08841603 66428,6917.875,95.437,540.638,538.843,0.0
52851.0,STARLINK-3809,PAYLOAD,2023-08-26 01:41:59,15.08835508,0.0001313,53.2164,223.873,98.434,261.6801,6.5613e-05,7.56e-06,0.0,0 STARLINK-3809,1 52851U 22062X   23238.07082761  .00000756  00000-0  65613-4 0  9995,2 52851  53.2164 223.8730 0001313  98.4340 261.6801 15.08835508 66521,6917.894,95.438,540.667,538.851,0.0
